NORAD_CAT_ID,OBJECT_NAME,OBJECT_TYPE,EPOCH,MEAN_MOTION,ECCENTRICITY,INCLINATION,RA_OF_ASC_NODE,ARG_OF_PERICENTER,MEAN_ANOMALY,BSTAR,MEAN_MOTION_DOT,MEAN_MOTION_DDOT,TLE_LINE0,TLE_LINE1,TLE_LINE2,SEMIMAJOR_AXIS,PERIOD,APOGEE,PERIGEE,DECAYED
53631.0,STARLINK-4599,PAYLOAD,2023-05-24 06:45:02,15.08835828,0.000111,53.2159,134.5123,90.2721,269.8399,8.5559e-05,1.074e-05,0.0,0 STARLINK-4599,1 53631U 22104AV  23144.28127513  .00001074  00000-0  85559-4 0  9998,2 53631  53.2159 134.5123 0001110  90.2721 269.8399 15.08835828 41029,6917.893,95.438,540.526,538.99,0.0
53631.0,STARLINK-4599,PAYLOAD,2023-05-26 04:51:13,15.08839402,0.0001233,53.216,125.8889,83.9695,276.1438,4.3391e-05,4.03e-06,0.0,0 STARLINK-4599,1 53631U 22104AV  23146.20223705  .00000403  00000-0  43391-4 0  9995,2 53631  53.2160 125.8889 0001233  83.9695 276.1438 15.08839402 41317,6917.882,95.438,540.6,538.894,0.0
53631.0,STARLINK-4599,PAYLOAD,2023-05-26 06:26:36,15.0884084,0.0001248,53.216,125.5915,83.8922,276.2212,5.547e-05,5.95e-06,0.0,0 STARLINK-4599,1 53631U 22104AV  23146.26847580  .00000595  00000-0  55470-4 0  9997,2 53631  53.2160 125.5915 0001248  83.8922 276.2212 15.08840840 42019,6917.878,95.438,540.606,538.879,0.0
53631.0,STARLINK-4599,PAYLOAD,2023-05-26 22:20:27,15.08838509,0.0001244,53.2158,122.6175,84.6851,275.4283,5.4637e-05,5.82e-06,0.0,0 STARLINK-4599,1 53631U 22104AV  23146.93087709  .00000582  00000-0  54637-4 0  9990,2 53631  53.2158 122.6175 0001244  84.6851 275.4283 15.08838509 42117,6917.885,95.438,540.611,538.889,0.0
53631.0,STARLINK-4599,PAYLOAD,2023-05-27 15:49:42,15.08841054,0.0001171,53.2156,119.3466,89.0188,271.0938,5.5203e-05,5.91e-06,0.0,0 STARLINK-4599,1 53631U 22104AV  23147.65951486  .00000591  00000-0  55203-4 0  9992,2 53631  53.2156 119.3466 0001171  89.0188 271.0938 15.08841054 41535,6917.877,95.437,540.552,538.932,0.0
53631.0,STARLINK-4599,PAYLOAD,2023-05-27 22:11:14,15.08839689,0.0001276,53.2161,118.1573,93.3273,266.7865,2.179e-05,5.9e-07,0.0,0 STARLINK-4599,1 53631U 22104AV  23147.92447715  .00000059  00000-0  21790-4 0  9990,2 53631  53.2161 118.1573 0001276  93.3273 266.7865 15.08839689 42268,6917.881,95.438,540.629,538.864,0.0
53631.0,STARLINK-4599,PAYLOAD,2023-05-28 04:32:47,15.08841667,0.0001288,53.2163,116.9676,95.8949,264.219,3.8141e-05,3.19e-06,0.0,0 STARLINK-4599,1 53631U 22104AV  23148.18943530  .00000319  00000-0  38141-4 0  9992,2 53631  53.2163 116.9676 0001288  95.8949 264.2190 15.08841667 42308,6917.875,95.437,540.631,538.849,0.0
53631.0,STARLINK-4599,PAYLOAD,2023-05-28 07:43:33,15.08842233,0.0001296,53.2163,116.3727,95.8959,264.218,4.2885e-05,3.95e-06,0.0,0 STARLINK-4599,1 53631U 22104AV  23148.32191459  .00000395  00000-0  42885-4 0  9997,2 53631  53.2163 116.3727 0001296  95.8959 264.2180 15.08842233 42320,6917.874,95.437,540.635,538.842,0.0
53631.0,STARLINK-4599,PAYLOAD,2023-05-29 04:23:34,15.08843322,0.000127,53.2169,112.507,95.8252,264.2885,4.6034e-05,4.45e-06,0.0,0 STARLINK-4599,1 53631U 22104AV  23149.18303296  .00000445  00000-0  46034-4 0  9992,2 53631  53.2169 112.5070 0001270  95.8252 264.2885 15.08843322 41762,6917.87,95.437,540.614,538.857,0.0
53631.0,STARLINK-4599,PAYLOAD,2023-05-29 07:34:20,15.08843567,0.0001275,53.2169,111.9122,95.6266,264.4872,4.6997e-05,4.6e-06,0.0,0 STARLINK-4599,1 53631U 22104AV  23149.31551252  .00000460  00000-0  46997-4 0  9999,2 53631  53.2169 111.9122 0001275  95.6266 264.4872 15.08843567 42479,6917.869,95.437,540.617,538.852,0.0
53631.0,STARLINK-4599,PAYLOAD,2023-05-30 01:03:35,15.08832579,0.0001269,53.2164,108.6382,98.2408,261.8728,-4.6871e-05,-1.034e-05,0.0,0 STARLINK-4599,1 53631U 22104AV  23150.04416405 -.00001034  00000-0 -46871-4 0  9992,2 53631  53.2164 108.6382 0001269  98.2408 261.8728 15.08832579 41892,6917.903,95.438,540.646,538.89,0.0
53631.0,STARLINK-4599,PAYLOAD,2023-05-30 07:25:08,15.08835703,0.0001082,53.2168,107.4512,93.8716,266.24,-8.1994e-06,-4.18e-06,0.0,0 STARLINK-4599,1 53631U 22104AV  23150.30912194 -.00000418  00000-0 -81994-5 0  9998,2 53631  53.2168 107.4512 0001082  93.8716 266.2400 15.08835703 42624,6917.894,95.438,540.507,539.01,0.0
53631.0,STARLINK-4599,PAYLOAD,2023-05-31 02:29:45,15.08839649,0.0001123,53.2166,103.8841,99.7649,260.347,-5.3794e-06,-3.73e-06,0.0,0 STARLINK-4599,1 53631U 22104AV  23151.10400201 -.00000373  00000-0 -53794-5 0  9995,2 53631  53.2166 103.8841 0001123  99.7649 260.3470 15.08839649 42055,6917.881,95.438,540.523,538.97,0.0
53631.0,STARLINK-4599,PAYLOAD,2023-05-31 05:40:31,15.08843478,0.000111,53.2168,103.2893,98.8292,261.2826,2.9907e-05,1.88e-06,0.0,0 STARLINK-4599,1 53631U 22104AV  23151.23647886  .00000188  00000-0  29907-4 0  9991,2 53631  53.2168 103.2893 0001110  98.8292 261.2826 15.08843478 42766,6917.87,95.437,540.503,538.967,0.0
53631.0,STARLINK-4599,PAYLOAD,2023-06-01 02:20:33,15.08826982,0.0001185,53.2167,99.4237,106.8741,253.2381,0.00017912,2.563e-05,0.0,0 STARLINK-4599,1 53631U 22104AV  23152.09760636  .00002563  00000-0  17912-3 0  9996,2 53631  53.2167  99.4237 0001185 106.8741 253.2381 15.08826982 42201,6917.92,95.438,540.605,538.965,0.0
53631.0,STARLINK-4599,PAYLOAD,2023-06-01 05:31:19,15.08841129,0.0001151,53.2167,98.8289,100.8375,259.2747,0.00010126,1.324e-05,0.0,0 STARLINK-4599,1 53631U 22104AV  23152.23008115  .00001324  00000-0  10126-3 0  9993,2 53631  53.2167  98.8289 0001151 100.8375 259.2747 15.08841129 42911,6917.877,95.437,540.538,538.946,0.0
53631.0,STARLINK-4599,PAYLOAD,2023-06-02 03:46:43,15.0884288,0.0001191,53.2169,94.6661,98.9192,261.1935,3.8079e-05,3.18e-06,0.0,0 STARLINK-4599,1 53631U 22104AV  23153.15744309  .00000318  00000-0  38079-4 0  9997,2 53631  53.2169  94.6661 0001191  98.9192 261.1935 15.08842880 43051,6917.872,95.437,540.561,538.913,0.0
53631.0,STARLINK-4599,PAYLOAD,2023-06-02 19:40:35,15.08832563,0.0001188,53.2172,91.6932,87.4002,272.7126,5.7339e-05,6.25e-06,0.0,0 STARLINK-4599,1 53631U 22104AV  23153.81985003  .00000625  00000-0  57339-4 0  9999,2 53631  53.2172  91.6932 0001188  87.4002 272.7126 15.08832563 43150,6917.903,95.438,540.59,538.946,0.0
53631.0,STARLINK-4599,PAYLOAD,2023-06-03 02:02:07,15.08836327,0.0001348,53.2176,90.5028,89.0937,271.021,-1.6147e-05,-5.45e-06,0.0,0 STARLINK-4599,1 53631U 22104AV  23154.08481174 -.00000545  00000-0 -16147-4 0  9994,2 53631  53.2176  90.5028 0001348  89.0937 271.0210 15.08836327 42507,6917.892,95.438,540.689,538.824,0.0
53631.0,STARLINK-4599,PAYLOAD,2023-06-03 05:12:53,15.0883852,0.0001349,53.2176,89.9074,90.1113,270.0034,4.2717e-06,-2.2e-06,0.0,0 STARLINK-4599,1 53631U 22104AV  23154.21728993 -.00000220  00000-0  42717-5 0  9994,2 53631  53.2176  89.9074 0001349  90.1113 270.0034 15.08838520 43219,6917.885,95.438,540.683,538.817,0.0
53631.0,STARLINK-4599,PAYLOAD,2023-06-03 19:31:21,15.08778093,0.0001544,53.2179,87.2309,108.0003,252.1158,0.0008092,0.00012592,0.0,0 STARLINK-4599,1 53631U 22104AV  23154.81344728  .00012592  00000-0  80920-3 0  9990,2 53631  53.2179  87.2309 0001544 108.0003 252.1158 15.08778093 43304,6918.07,95.441,541.003,538.866,0.0
53631.0,STARLINK-4599,PAYLOAD,2023-06-04 05:03:40,15.0884739,0.0001262,53.2171,85.4467,91.5496,268.5641,0.0001126,1.505e-05,0.0,0 STARLINK-4599,1 53631U 22104AV  23155.21088021  .00001505  00000-0  11260-3 0  9999,2 53631  53.2171  85.4467 0001262  91.5496 268.5641 15.08847390 42674,6917.858,95.437,540.596,538.85,0.0
53631.0,STARLINK-4599,PAYLOAD,2023-06-04 19:22:08,15.08838737,0.0001186,53.2171,82.7709,91.4741,268.6387,6.5509e-05,7.55e-06,0.0,0 STARLINK-4599,1 53631U 22104AV  23155.80704706  .00000755  00000-0  65509-4 0  9991,2 53631  53.2171  82.7709 0001186  91.4741 268.6387 15.08838737 42763,6917.884,95.438,540.57,538.929,0.0
53631.0,STARLINK-4599,PAYLOAD,2023-06-05 04:54:27,15.0884447,0.000112,53.2174,80.9857,94.3666,265.7455,8.693e-05,1.096e-05,0.0,0 STARLINK-4599,1 53631U 22104AV  23156.20448233  .00001096  00000-0  86930-4 0  9996,2 53631  53.2174  80.9857 0001120  94.3666 265.7455 15.08844470 43515,6917.867,95.437,540.507,538.957,0.0
53631.0,STARLINK-4599,PAYLOAD,2023-06-05 23:59:05,15.08836521,0.0001244,53.2176,77.417,96.5147,263.5986,-7.4894e-05,-1.479e-05,0.0,0 STARLINK-4599,1 53631U 22104AV  23156.99937368 -.00001479  00000-0 -74894-4 0  9997,2 53631  53.2176  77.4170 0001244  96.5147 263.5986 15.08836521 42940,6917.891,95.438,540.617,538.895,0.0
53631.0,STARLINK-4599,PAYLOAD,2023-06-06 04:45:15,15.08838643,0.0001243,53.2177,76.5245,96.6008,263.5126,-5.6537e-05,-1.187e-05,0.0,0 STARLINK-4599,1 53631U 22104AV  23157.19809173 -.00001187  00000-0 -56537-4 0  9992,2 53631  53.2177  76.5245 0001243  96.6008 263.5126 15.08838643 43663,6917.885,95.438,540.609,538.89,0.0
53631.0,STARLINK-4599,PAYLOAD,2023-06-06 19:03:43,15.08837481,0.0001186,53.2177,73.8498,89.9588,270.1541,-1.7029e-06,-3.15e-06,0.0,0 STARLINK-4599,1 53631U 22104AV  23157.79425243 -.00000315  00000-0 -17029-5 0  9996,2 53631  53.2177  73.8498 0001186  89.9588 270.1541 15.08837481 43751,6917.888,95.438,540.574,538.933,0.0
53631.0,STARLINK-4599,PAYLOAD,2023-06-06 22:14:29,15.08839453,0.0001163,53.2174,73.2556,88.7638,271.3487,2.6132e-05,1.28e-06,0.0,0 STARLINK-4599,1 53631U 22104AV  23157.92673055  .00000128  00000-0  26132-4 0  9991,2 53631  53.2174  73.2556 0001163  88.7638 271.3487 15.08839453 43084,6917.882,95.438,540.552,538.943,0.0
53631.0,STARLINK-4599,PAYLOAD,2023-06-07 04:36:01,15.0884499,0.0001268,53.2179,72.0658,91.9609,268.1528,8.7094e-05,1.099e-05,0.0,0 STARLINK-4599,1 53631U 22104AV  23158.19168509  .00001099  00000-0  87094-4 0  9996,2 53631  53.2179  72.0658 0001268  91.9609 268.1528 15.08844990 43126,6917.865,95.437,540.607,538.853,0.0
53631.0,STARLINK-4599,PAYLOAD,2023-06-07 18:54:30,15.08834949,0.0001273,53.2184,69.3881,91.1928,268.921,1.9318e-05,2e-07,0.0,0 STARLINK-4599,1 53631U 22104AV  23158.78785530  .00000020  00000-0  19318-4 0  9997,2 53631  53.2184  69.3881 0001273  91.1928 268.9210 15.08834949 43210,6917.896,95.438,540.641,538.88,0.0
